[Satellite]
VERSION=1.1
NAME=N-STAR C
NICKNAME=N-STAR C
TLE1=1 27461U 02035B   15054.70421440 -.00000334  00000-0  00000+0 0  9997
TLE2=2 27461   3.0250  70.1541 0002367 248.0798 224.5012  1.00267269 46252
